SL-16 R/B               
1 25400U 98043G   25363.84836743  .00000140  00000+0  77587-4 0  9999
2 25400  98.8149 311.7643 0009214 212.0160 148.0460 14.26030023429037
SL-16 R/B               
1 25407U 98045B   25364.21126066  .00000141  00000+0  95146-4 0  9992
2 25407  71.0125 327.6836 0005836 147.3888 212.7596 14.16181052417263
ISS (ZARYA)             
1 25544U 98067A   25363.50072365  .00018472  00000+0  33150-3 0  9993
2 25544  51.6323  59.4638 0003290 318.5670  41.5069 15.49944447545450
CZ-4B R/B               
1 25732U 99025C   25364.10315181  .00000126  00000+0  81697-4 0  9997
2 25732  98.6745  44.9927 0037086 183.5165 231.5876 14.18248158378303
OKEAN-O                 
1 25860U 99039A   25364.16293051  .00001178  00000+0  16193-3 0  9997
2 25860  97.9579  59.7119 0001240 115.2186 244.9154 14.80193913424101
SL-16 R/B               
1 25861U 99039B   25364.14130772  .00001028  00000+0  13744-3 0  9999
2 25861  98.0102  58.2917 0015982 120.7380 239.5408 14.81614289426560
DELTA 2 R/B             
1 25876U 99041E   25363.99070882  .00002750  00000+0  48049-3 0  9994
2 25876  51.7592 219.5797 0504346 142.6085 221.1086 14.11455968353181
HELIOS 1B               
1 25977U 99064A   25364.16070692  .00002944  00000+0  33226-3 0  9996
2 25977  98.1752 259.3434 0000684  34.4285 325.6975 14.87359770674924
TERRA                   
1 25994U 99068A   25364.12935705  .00000739  00000+0  16006-3 0  9997
2 25994  97.9725  55.1735 0003252  59.3879 353.4966 14.60923196384922
SL-16 R/B               
1 26070U 00006B   25364.06731001  .00000325  00000+0  18937-3 0  9999
2 26070  71.0011 244.2254 0018666 285.2561  74.6498 14.15811809338703
TITAN 4B R/B            
1 26474U 00047B   25364.11091543  .00005349  00000+0  34098-3 0  9995
2 26474  67.9889 236.0645 0037782 123.2695 237.2083 15.08916163382416
ENVISAT                 
1 27386U 02009A   25352.94754304  .00000081  00000+0  39999-4 0  9991
2 27386  98.3609 303.5309 0001126  84.8976 298.2993 14.39001403247569
